HAWK-5A                 
1 52757U 22057AB  26153.85129206  .00020386  00000+0  35414-3 0  9990
2 52757  97.6589 311.7818 0006084 122.0269 238.1574 15.50847928224121
HAWK-6B                 
1 55324U 23011A   26152.96872114  .00005216  00000+0  22662-3 0  9994
2 55324  40.4988  80.8265 0004582 282.4119  77.6177 15.22786806185520
HAWK-6C                 
1 55326U 23011C   26152.18110870  .00004723  00000+0  20602-3 0  9998
2 55326  40.4977  82.2594 0004869 269.1166  90.9085 15.22781975185419
HAWK-6A                 
1 55327U 23011D   26152.18112240  .00005251  00000+0  22814-3 0  9996
2 55327  40.4988  83.8823 0004575 268.7507  91.2778 15.22777622185419
HAWK-7A                 
1 56191U 23054P   26154.74475124  .00001898  00000+0  73869-4 0  9990
2 56191  97.2671  42.4316 0004029  97.2300 262.9398 15.27201148174970
HAWK-7B                 
1 56193U 23054R   26154.61363946  .00006526  00000+0  24730-3 0  9991
2 56193  97.2741  40.5553 0004038  94.5078 265.6623 15.27213472174956
HAWK-7C                 
1 56200U 23054Y   26154.61351923  .00006093  00000+0  23110-3 0  9992
2 56200  97.2717  41.3282 0004176  87.7508 272.4210 15.27210614174954
